{"type": "FeatureCollection", "features": [ {"type": "Feature", "properties": {"norad_id": 66959, "name": "STARLINK-35887", "group": "last-30-days", "lat": 42.49773107972002, "lon": 173.669525440358, "alt_km": 359.0677408039792, "timestamp": "2025-12-24T16:52:40.180933+00:00", "meta": {"OBJECT_NAME": "STARLINK-35887", "OBJECT_ID": "2025-288A", "EPOCH": "2025-12-24T06:00:02.000160", "MEAN_MOTION": 15.69806468, "ECCENTRICITY": 0.00013415, "INCLINATION": 43.0002, "RA_OF_ASC_NODE": 96.8887, "ARG_OF_PERICENTER": 283.429, "MEAN_ANOMALY": 116.0154, "EPHEMERIS_TYPE": 0, "CLASSIFICATION_TYPE": "U", "NORAD_CAT_ID": 66959, "ELEMENT_SET_NO": 999, "REV_AT_EPOCH": 368, "BSTAR": -0.017617877, "MEAN_MOTION_DOT": -0.01918934, "MEAN_MOTION_DDOT": 0}, "tle": {"line1": "1 66959U 25288A   25358.25002315 -.01918934  00000+0 -17618-1 0  9991", "line2": "2 66959  43.0002  96.8887 0001341 283.4290 116.0154 15.69806468  3687"}}, "geometry": {"type": "Point", "coordinates": [173.669525440358, 42.49773107972002]}}, {"type": "Feature", "properties": {"norad_id": 66960, "name": "STARLINK-35879", "group": "last-30-days", "lat": 42.70686931925496, "lon": 176.25488986608295, "alt_km": 359.1055199800039, "timestamp": "2025-12-24T16:52:40.180944+00:00", "meta": {"OBJECT_NAME": "STARLINK-35879", "OBJECT_ID": "2025-288B", "EPOCH": "2025-12-24T06:00:02.000160", "MEAN_MOTION": 15.69809774, "ECCENTRICITY": 0.00013606, "INCLINATION": 43.0003, "RA_OF_ASC_NODE": 96.8839, "ARG_OF_PERICENTER": 277.5693, "MEAN_ANOMALY": 123.7866, "EPHEMERIS_TYPE": 0, "CLASSIFICATION_TYPE": "U", "NORAD_CAT_ID": 66960, "ELEMENT_SET_NO": 999, "REV_AT_EPOCH": 368, "BSTAR": -0.017602005, "MEAN_MOTION_DOT": -0.01917653, "MEAN_MOTION_DDOT": 0}, "tle": {"line1": "1 66960U 25288B   25358.25002315 -.01917653  00000+0 -17602-1 0  9993", "line2": "2 66960  43.0003  96.8839 0001360 277.5693 123.7866 15.69809774  3687"}}, "geometry": {"type": "Point", "coordinates": [176.25488986608295, 42.70686931925496]}}, {"type": "Feature", "properties": {"norad_id": 66961, "name": "STARLINK-35761", "group": "last-30-days", "lat": 42.85713615443974, "lon": 178.8563478420465, "alt_km": 359.1143057349909, "timestamp": "2025-12-24T16:52:40.180955+00:00", "meta": {"OBJECT_NAME": "STARLINK-35761", "OBJECT_ID": "2025-288C", "EPOCH": "2025-12-24T06:00:02.000160", "MEAN_MOTION": 15.69813693, "ECCENTRICITY": 0.00013726, "INCLINATION": 43.0002, "RA_OF_ASC_NODE": 96.8792, "ARG_OF_PERICENTER": 275.3512, "MEAN_ANOMALY": 127.9183, "EPHEMERIS_TYPE": 0, "CLASSIFICATION_TYPE": "U", "NORAD_CAT_ID": 66961, "ELEMENT_SET_NO": 999, "REV_AT_EPOCH": 368, "BSTAR": -0.017629117, "MEAN_MOTION_DOT": -0.01920559, "MEAN_MOTION_DDOT": 0}, "tle": {"line1": "1 66961U 25288C   25358.25002315 -.01920559  00000+0 -17629-1 0  9992", "line2": "2 66961  43.0002  96.8792 0001372 275.3512 127.9183 15.69813693  3687"}}, "geometry": {"type": "Point", "coordinates": [178.8563478420465, 42.85713615443974]}}, {"type": "Feature", "properties": {"norad_id": 66962, "name": "STARLINK-35874", "group": "last-30-days", "lat": 42.94815725252674, "lon": -178.53170109822636, "alt_km": 359.02235681116235, "timestamp": "2025-12-24T16:52:40.180965+00:00", "meta": {"OBJECT_NAME": "STARLINK-35874", "OBJECT_ID": "2025-288D", "EPOCH": "2025-12-24T06:00:02.000160", "MEAN_MOTION": 15.69805026, "ECCENTRICITY": 0.00012454, "INCLINATION": 43.0002, "RA_OF_ASC_NODE": 96.8743, "ARG_OF_PERICENTER": 274.6839, "MEAN_ANOMALY": 130.5095, "EPHEMERIS_TYPE": 0, "CLASSIFICATION_TYPE": "U", "NORAD_CAT_ID": 66962, "ELEMENT_SET_NO": 999, "REV_AT_EPOCH": 368, "BSTAR": -0.017546449, "MEAN_MOTION_DOT": -0.01911866, "MEAN_MOTION_DDOT": 0}, "tle": {"line1": "1 66962U 25288D   25358.25002315 -.01911866  00000+0 -17546-1 0  9992", "line2": "2 66962  43.0002  96.8743 0001245 274.6839 130.5095 15.69805026  3680"}}, "geometry": {"type": "Point", "coordinates": [-178.53170109822636, 42.94815725252674]}}, {"type": "Feature", "properties": {"norad_id": 66963, "name": "STARLINK-36133", "group": "last-30-days", "lat": 42.97943654002657, "lon": -175.91338115536712, "alt_km": 359.1183105108603, "timestamp": "2025-12-24T16:52:40.180977+00:00", "meta": {"OBJECT_NAME": "STARLINK-36133", "OBJECT_ID": "2025-288E", "EPOCH": "2025-12-24T06:00:02.000160", "MEAN_MOTION": 15.69813056, "ECCENTRICITY": 0.00013519, "INCLINATION": 43.0002, "RA_OF_ASC_NODE": 96.8696, "ARG_OF_PERICENTER": 275.4551, "MEAN_ANOMALY": 131.6555, "EPHEMERIS_TYPE": 0, "CLASSIFICATION_TYPE": "U", "NORAD_CAT_ID": 66963, "ELEMENT_SET_NO": 999, "REV_AT_EPOCH": 368, "BSTAR": -0.01769266, "MEAN_MOTION_DOT": -0.01926627, "MEAN_MOTION_DDOT": 0}, "tle": {"line1": "1 66963U 25288E   25358.25002315 -.01926627  00000+0 -17693-1 0  9997", "line2": "2 66963  43.0002  96.8696 0001351 275.4551 131.6555 15.69813056  3681"}}, "geometry": {"type": "Point", "coordinates": [-175.91338115536712, 42.97943654002657]}}, {"type": "Feature", "properties": {"norad_id": 66964, "name": "STARLINK-36104", "group": "last-30-days", "lat": 42.95080278748731, "lon": -173.29538221280646, "alt_km": 359.1329779539692, "timestamp": "2025-12-24T16:52:40.180990+00:00", "meta": {"OBJECT_NAME": "STARLINK-36104", "OBJECT_ID": "2025-288F", "EPOCH": "2025-12-24T06:00:02.000160", "MEAN_MOTION": 15.69809129, "ECCENTRICITY": 0.00014101, "INCLINATION": 43.0002, "RA_OF_ASC_NODE": 96.8645, "ARG_OF_PERICENTER": 278.802, "MEAN_ANOMALY": 130.2215, "EPHEMERIS_TYPE": 0, "CLASSIFICATION_TYPE": "U", "NORAD_CAT_ID": 66964, "ELEMENT_SET_NO": 999, "REV_AT_EPOCH": 368, "BSTAR": -0.017584499, "MEAN_MOTION_DOT": -0.01915954, "MEAN_MOTION_DDOT": 0}, "tle": {"line1": "1 66964U 25288F   25358.25002315 -.01915954  00000+0 -17584-1 0  9998", "line2": "2 66964  43.0002  96.8645 0001410 278.8020 130.2215 15.69809129  3684"}}, "geometry": {"type": "Point", "coordinates": [-173.29538221280646, 42.95080278748731]}}, {"type": "Feature", "properties": {"norad_id": 66965, "name": "STARLINK-36067", "group": "last-30-days", "lat": 42.86240956412796, "lon": -170.68257132345724, "alt_km": 359.16108426214396, "timestamp": "2025-12-24T16:52:40.181000+00:00", "meta": {"OBJECT_NAME": "STARLINK-36067", "OBJECT_ID": "2025-288G", "EPOCH": "2025-12-24T06:00:02.000160", "MEAN_MOTION": 15.69812715, "ECCENTRICITY": 0.00013946, "INCLINATION": 43.0002, "RA_OF_ASC_NODE": 96.86, "ARG_OF_PERICENTER": 277.8117, "MEAN_ANOMALY": 133.1303, "EPHEMERIS_TYPE": 0, "CLASSIFICATION_TYPE": "U", "NORAD_CAT_ID": 66965, "ELEMENT_SET_NO": 999, "REV_AT_EPOCH": 368, "BSTAR": -0.017660714, "MEAN_MOTION_DOT": -0.01923554, "MEAN_MOTION_DDOT": 0}, "tle": {"line1": "1 66965U 25288G   25358.25002315 -.01923554  00000+0 -17661-1 0  9990", "line2": "2 66965  43.0002  96.8600 0001394 277.8117 133.1303 15.69812715  3688"}}, "geometry": {"type": "Point", "coordinates": [-170.68257132345724, 42.86240956412796]}}, {"type": "Feature", "properties": {"norad_id": 66966, "name": "STARLINK-36139", "group": "last-30-days", "lat": 42.71484770068536, "lon": -168.07919748273008, "alt_km": 359.23844316476607, "timestamp": "2025-12-24T16:52:40.181012+00:00", "meta": {"OBJECT_NAME": "STARLINK-36139", "OBJECT_ID": "2025-288H", "EPOCH": "2025-12-24T06:00:02.000160", "MEAN_MOTION": 15.69808613, "ECCENTRICITY": 0.00014724, "INCLINATION": 43.0005, "RA_OF_ASC_NODE": 96.8551, "ARG_OF_PERICENTER": 279.1082, "MEAN_ANOMALY": 133.7541, "EPHEMERIS_TYPE": 0, "CLASSIFICATION_TYPE": "U", "NORAD_CAT_ID": 66966, "ELEMENT_SET_NO": 999, "REV_AT_EPOCH": 368, "BSTAR": -0.017623452, "MEAN_MOTION_DOT": -0.01919723, "MEAN_MOTION_DDOT": 0}, "tle": {"line1": "1 66966U 25288H   25358.25002315 -.01919723  00000+0 -17623-1 0  9992", "line2": "2 66966  43.0005  96.8551 0001472 279.1082 133.7541 15.69808613  3682"}}, "geometry": {"type": "Point", "coordinates": [-168.07919748273008, 42.71484770068536]}}, {"type": "Feature", "properties": {"norad_id": 66967, "name": "STARLINK-36136", "group": "last-30-days", "lat": 42.50806351309207, "lon": -165.4922043780786, "alt_km": 359.2182217623413, "timestamp": "2025-12-24T16:52:40.181022+00:00", "meta": {"OBJECT_NAME": "STARLINK-36136", "OBJECT_ID": "2025-288J", "EPOCH": "2025-12-24T06:00:02.000160", "MEAN_MOTION": 15.69806015, "ECCENTRICITY": 0.00013972, "INCLINATION": 43.0003, "RA_OF_ASC_NODE": 96.8502, "ARG_OF_PERICENTER": 278.3894, "MEAN_ANOMALY": 136.3902, "EPHEMERIS_TYPE": 0, "CLASSIFICATION_TYPE": "U", "NORAD_CAT_ID": 66967, "ELEMENT_SET_NO": 999, "REV_AT_EPOCH": 368, "BSTAR": -0.017578702, "MEAN_MOTION_DOT": -0.01915162, "MEAN_MOTION_DDOT": 0}, "tle": {"line1": "1 66967U 25288J   25358.25002315 -.01915162  00000+0 -17579-1 0  9996", "line2": "2 66967  43.0003  96.8502 0001397 278.3894 136.3902 15.69806015  3689"}}, "geometry": {"type": "Point", "coordinates": [-165.4922043780786, 42.50806351309207]}}, {"type": "Feature", "properties": {"norad_id": 66968, "name": "STARLINK-36152", "group": "last-30-days", "lat": 42.24341175102604, "lon": -162.9243192846508, "alt_km": 359.2012762112008, "timestamp": "2025-12-24T16:52:40.181033+00:00", "meta": {"OBJECT_NAME": "STARLINK-36152", "OBJECT_ID": "2025-288K", "EPOCH": "2025-12-24T06:00:02.000160", "MEAN_MOTION": 15.69808343, "ECCENTRICITY": 0.00013115, "INCLINATION": 43.0003, "RA_OF_ASC_NODE": 96.8449, "ARG_OF_PERICENTER": 278.2133, "MEAN_ANOMALY": 138.4814, "EPHEMERIS_TYPE": 0, "CLASSIFICATION_TYPE": "U", "NORAD_CAT_ID": 66968, "ELEMENT_SET_NO": 999, "REV_AT_EPOCH": 368, "BSTAR": -0.017596437, "MEAN_MOTION_DOT": -0.01916977, "MEAN_MOTION_DDOT": 0}, "tle": {"line1": "1 66968U 25288K   25358.25002315 -.01916977  00000+0 -17596-1 0  9991", "line2": "2 66968  43.0003  96.8449 0001311 278.2133 138.4814 15.69808343  3682"}}, "geometry": {"type": "Point", "coordinates": [-162.9243192846508, 42.24341175102604]}}]}